GLOBALSTAR M024         
1 25883U 99043A   25228.46067134 -.00000057  00000+0  27331-3 0  9992
2 25883  51.9975 244.6268 0001468 204.3023 328.0507 11.10163911121552
GLOBALSTAR M027         
1 25884U 99043B   25228.50585139 -.00000057  00000+0  24384-3 0  9993
2 25884  52.0242 324.2170 0021904  89.6581 270.6722 11.04371788147903
GLOBALSTAR M054         
1 25885U 99043C   25228.57146302 -.00000163  00000+0 -23465-2 0  9993
2 25885  52.0138  81.2331 0004669 282.5849 100.3467 11.39221368125937
GLOBALSTAR M053         
1 25886U 99043D   25228.19861547 -.00000072  00000+0 -96739-4 0  9992
2 25886  52.0004  32.5493 0003346 169.0437   1.5273 11.27666218126214
GLOBALSTAR M058         
1 25907U 99049A   25228.53985218 -.00000061  00000+0  30944-3 0  9994
2 25907  51.9958 308.0210 0002171  39.1476 320.9516 11.93201183548740
GLOBALSTAR M050         
1 25908U 99049B   25228.55054390 -.00000074  00000+0  15772-3 0  9991
2 25908  52.0009 311.1578 0009587 150.8758 221.7744 12.07455773155482
GLOBALSTAR M033         
1 25909U 99049C   25228.22579848 -.00000027  00000+0  62349-3 0  9996
2 25909  51.9893 179.7299 0014073  26.3657 333.7903 12.20296373543072
GLOBALSTAR M055         
1 25910U 99049D   25228.58172096 -.00000073  00000+0  18031-3 0  9991
2 25910  52.0001 186.5359 0006862 259.6520 100.3558 12.29431059175714
